NORAD_CAT_ID,OBJECT_NAME,OBJECT_TYPE,EPOCH,MEAN_MOTION,ECCENTRICITY,INCLINATION,RA_OF_ASC_NODE,ARG_OF_PERICENTER,MEAN_ANOMALY,BSTAR,MEAN_MOTION_DOT,MEAN_MOTION_DDOT,TLE_LINE0,TLE_LINE1,TLE_LINE2,SEMIMAJOR_AXIS,PERIOD,APOGEE,PERIGEE,DECAYED
53896.0,STARLINK-5037,PAYLOAD,2022-09-30 12:00:00,15.89643781,0.003438,53.2173,225.9716,63.2538,345.2494,-0.0041056,-0.01301776,0.00048308,0 STARLINK-5037,1 53896U 22119L   22273.50001157 -.01301776  48308-3 -41056-2 0  9992,2 53896  53.2173 225.9716 0034380  63.2538 345.2494 15.89643781  1308,6681.418000000002,90.586,326.254,280.312,0.0
53896.0,STARLINK-5037,PAYLOAD,2022-09-30 22:00:00,15.884317499999998,0.0029321,53.2189,223.8602,67.1094,206.5252,-0.0038003,-0.0111802,0.00036215,0 STARLINK-5037,1 53896U 22119L   22273.91667824 -.01118020  36215-3 -38003-2 0  9996,2 53896  53.2189 223.8602 0029321  67.1094 206.5252 15.88431750  1306,6684.816,90.655,326.282,287.081,0.0
53896.0,STARLINK-5037,PAYLOAD,2022-10-01 06:00:00,15.87521852,0.0025824999999999,53.2195,222.1766,68.6559,311.8662,-0.0037129,-0.01035408,0.00031242,0 STARLINK-5037,1 53896U 22119L   22274.25001157 -.01035408  31242-3 -37129-2 0  9996,2 53896  53.2195 222.1766 0025825  68.6559 311.8662 15.87521852  1412,6687.37,90.707,326.505,291.965,0.0
53896.0,STARLINK-5037,PAYLOAD,2022-10-01 14:00:01,15.86702493,0.0022401,53.2188,220.4908,70.8062,55.5207,-0.0041592,-0.01105041,0.00034895,0 STARLINK-5037,1 53896U 22119L   22274.58334491 -.01105041  34895-3 -41592-2 0  9999,2 53896  53.2188 220.4908 0022401  70.8062  55.5207 15.86702493  1478,6689.672,90.754,326.523,296.552,0.0
53896.0,STARLINK-5037,PAYLOAD,2022-10-01 20:00:01,15.86172481,0.0019736,53.2175,219.2268,69.86,45.1641,-0.0050626,-0.01155601,0.0,0 STARLINK-5037,1 53896U 22119L   22274.83335648 -.01155601  00000-0 -50626-2 0  9995,2 53896  53.2175 219.2268 0019736  69.8600  45.1641 15.86172481  1512,6691.1619999999975,90.785,326.233,299.822,0.0
53896.0,STARLINK-5037,PAYLOAD,2022-10-01 22:00:00,15.85764275,0.0018484,53.2184,218.8079,75.032,156.1272,-0.0040149,-0.00919603,0.0,0 STARLINK-5037,1 53896U 22119L   22274.91667824 -.00919603  00000-0 -40149-2 0  9996,2 53896  53.2184 218.8079 0018484  75.0320 156.1272 15.85764275  1301,6692.311,90.808,326.546,301.806,0.0
53896.0,STARLINK-5037,PAYLOAD,2022-10-02 04:00:00,15.85332144,0.0015863,53.2174,217.5488,73.4151,145.5383,-0.0055446,-0.01198793,0.0,0 STARLINK-5037,1 53896U 22119L   22275.16667824 -.01198793  00000-0 -55446-2 0  9990,2 53896  53.2174 217.5488 0015863  73.4151 145.5383 15.85332144  1561,6693.526999999999,90.833,326.01,304.774,0.0
53896.0,STARLINK-5037,PAYLOAD,2022-10-02 14:00:01,15.84209067,0.001138,53.2188,215.4511,73.58800000000002,3.9203,-0.0055506999999999,-0.01136325,0.0,0 STARLINK-5037,1 53896U 22119L   22275.58334491 -.01136325  00000-0 -55507-2 0  9998,2 53896  53.2188 215.4511 0011380  73.5880   3.9203 15.84209067  1306,6696.69,90.897,326.176,310.934,0.0
53896.0,STARLINK-5037,PAYLOAD,2022-10-02 22:00:00,15.83342972,0.0008146,53.2187,213.7752,74.9122,104.2573,-0.0058451,-0.01163277,0.0,0 STARLINK-5037,1 53896U 22119L   22275.91667824 -.01163277  00000-0 -58451-2 0  9991,2 53896  53.2187 213.7752 0008146  74.9122 104.2573 15.83342972  1300,6699.132,90.947,326.454,315.539,0.0
53896.0,STARLINK-5037,PAYLOAD,2022-10-03 04:00:01,15.82713709,0.0005701,53.2175,212.5204,69.6335,95.1504,-0.0061903999999999,-0.01189677,0.0,0 STARLINK-5037,1 53896U 22119L   22276.16668981 -.01189677  00000-0 -61904-2 0  9993,2 53896  53.2175 212.5204 0005701  69.6335  95.1504 15.82713709  1724,6700.906999999997,90.983,326.592,318.952,0.0
53896.0,STARLINK-5037,PAYLOAD,2022-10-03 12:00:00,15.81862852,0.0002429,53.2173,210.8474,66.7587,197.788,-0.0066246,-0.01216643,0.0,0 STARLINK-5037,1 53896U 22119L   22276.50001157 -.01216643  00000-0 -66246-2 0  9995,2 53896  53.2173 210.8474 0002429  66.7587 197.7880 15.81862852  1777,6703.31,91.032,326.803,323.547,0.0
53896.0,STARLINK-5037,PAYLOAD,2022-10-03 14:00:01,15.81477186,0.0002068,53.2186,210.4311,69.7468,309.6758,-0.0053556,-0.00972908,0.0,0 STARLINK-5037,1 53896U 22119L   22276.58334491 -.00972908  00000-0 -53556-2 0  9995,2 53896  53.2186 210.4311 0002068  69.7468 309.6758 15.81477186  1306,6704.4,91.054,327.651,324.878,0.0
53896.0,STARLINK-5037,PAYLOAD,2022-10-03 22:00:00,15.80573883,0.0001391,53.2183,208.7614,113.0443,4.9249,-0.0052756,-0.00923939,0.0,0 STARLINK-5037,1 53896U 22119L   22276.91667824 -.00923939  00000-0 -52756-2 0  9992,2 53896  53.2183 208.7614 0001391 113.0443   4.9249 15.80573883  1303,6706.954000000002,91.106,329.7519999999999,327.886,0.0
53896.0,STARLINK-5037,PAYLOAD,2022-10-04 14:00:01,15.7903174,0.0002015,53.2176,205.428,157.8133,153.9939,-0.0074303,-0.01198494,0.0,0 STARLINK-5037,1 53896U 22119L   22277.58334491 -.01198494  00000-0 -74303-2 0  9990,2 53896  53.2176 205.4280 0002015 157.8133 153.9939 15.79031740  1944,6711.32,91.195,334.537,331.832,0.0
53896.0,STARLINK-5037,PAYLOAD,2022-10-04 20:00:01,15.78387144,0.0006386,53.2176,204.1806,263.3901,30.0627,-0.0077014,-0.01208583,0.0,0 STARLINK-5037,1 53896U 22119L   22277.83334491 -.01208583  00000-0 -77014-2 0  9991,2 53896  53.2176 204.1806 0006386 263.3901  30.0627 15.78387144  1989,6713.147,91.232,339.2990000000001,330.725,0.0
53896.0,STARLINK-5037,PAYLOAD,2022-10-04 22:00:00,15.78165041,0.0006752999999999,53.2177,203.7658,266.6719,140.5356,-0.0077334999999999,-0.01202549,0.0,0 STARLINK-5037,1 53896U 22119L   22277.91667824 -.01202549  00000-0 -77335-2 0  9991,2 53896  53.2177 203.7658 0006753 266.6719 140.5356 15.78165041  1303,6713.776999999999,91.245,340.176,331.108,0.0
53896.0,STARLINK-5037,PAYLOAD,2022-10-05 14:00:01,15.76418848,0.000653,53.2175,200.4461,266.7032,328.2463,-0.0082224,-0.01183916,0.0,0 STARLINK-5037,1 53896U 22119L   22278.58335648 -.01183916  00000-0 -82224-2 0  9990,2 53896  53.2175 200.4461 0006530 266.7032 328.2463 15.76418848  2106,6718.734,91.346,344.986,336.211,0.0
53896.0,STARLINK-5037,PAYLOAD,2022-10-05 22:00:00,15.75545648,0.0003866,53.2176,198.7903,268.8583,58.2983,-0.0084727,-0.01172627,0.0,0 STARLINK-5037,1 53896U 22119L   22278.91667824 -.01172627  00000-0 -84727-2 0  9998,2 53896  53.2176 198.7903 0003866 268.8583  58.2983 15.75545648  1306,6721.215999999999,91.397,345.67900000000014,340.483,0.0
53896.0,STARLINK-5037,PAYLOAD,2022-10-06 04:00:00,15.74662966,0.0005447,53.219,197.5527,270.3507,35.4446,-0.0063627,-0.00861914,0.0,0 STARLINK-5037,1 53896U 22119L   22279.16667824 -.00861914  00000-0 -63627-2 0  9995,2 53896  53.2190 197.5527 0005447 270.3507  35.4446 15.74662966  2193,6723.727,91.448,349.255,341.93,0.0
53896.0,STARLINK-5037,PAYLOAD,2022-10-06 14:00:01,15.73681862,0.0002686999999999,53.2175,195.4833,298.8632,209.72,-0.0043944,-0.00588409,0.0,0 STARLINK-5037,1 53896U 22119L   22279.58334491 -.00588409  00000-0 -43944-2 0  9997,2 53896  53.2175 195.4833 0002687 298.8632 209.7200 15.73681862  1301,6726.522,91.505,350.194,346.579,0.0
53896.0,STARLINK-5037,PAYLOAD,2022-10-06 22:00:00,15.73202355,0.0002025,53.2176,193.8341,313.0459,284.7904,1.966e-05,2.139e-05,0.0,0 STARLINK-5037,1 53896U 22119L   22279.91667824  .00002139  00000-0  19660-4 0  9992,2 53896  53.2176 193.8341 0002025 313.0459 284.7904 15.73202355  2313,6727.888000000001,91.533,351.116,348.391,0.0
53896.0,STARLINK-5037,PAYLOAD,2022-10-06 22:42:55,15.73204511,0.0002000999999999,53.2175,193.6868,309.1519,97.5065,-1.6226e-06,-8.49e-06,0.0,0 STARLINK-5037,1 53896U 22119L   22279.94646991 -.00000849  00000-0 -16226-5 0  9991,2 53896  53.2175 193.6868 0002001 309.1519  97.5065 15.73204511  1303,6727.882,91.533,351.094,348.401,0.0
53896.0,STARLINK-5037,PAYLOAD,2022-10-07 04:00:00,15.732321,0.0007509999999999,53.2222,192.613,267.5278,307.1463,-0.00016886,-0.00024336,0.0,0 STARLINK-5037,1 53896U 22119L   22280.16667824 -.00024336  00000-0 -16886-3 0  9992,2 53896  53.2222 192.6130 0007510 267.5278 307.1463 15.73232100  2359,6727.804,91.531,354.721,344.616,0.0
53896.0,STARLINK-5037,PAYLOAD,2022-10-07 12:00:00,15.73216968,0.0007283,53.2216,190.962,266.5232,37.1063,0.00030194,0.00042053,0.0,0 STARLINK-5037,1 53896U 22119L   22280.50001157  .00042053  00000-0  30194-3 0  9993,2 53896  53.2216 190.9620 0007283 266.5232  37.1063 15.73216968  2409,6727.847,91.532,354.612,344.81199999999984,0.0
53896.0,STARLINK-5037,PAYLOAD,2022-10-07 14:00:01,15.73233477,0.0007211,53.2212,190.5492,266.264,149.6024,0.00010518,0.0001419999999999,0.0,0 STARLINK-5037,1 53896U 22119L   22280.58334491  .00014200  00000-0  10518-3 0  9992,2 53896  53.2212 190.5492 0007211 266.2640 149.6024 15.73233477  1307,6727.8,91.531,354.516,344.81300000000016,0.0
53896.0,STARLINK-5037,PAYLOAD,2022-10-07 20:00:01,15.73230484,0.0006868,53.2206,189.3127,267.2014,125.3512,-0.0006606,-0.00092595,0.0,0 STARLINK-5037,1 53896U 22119L   22280.83334491 -.00092595  00000-0 -66060-3 0  9998,2 53896  53.2206 189.3127 0006868 267.2014 125.3512 15.73230484  2460,6727.808000000001,91.531,354.2940000000001,345.05300000000005,0.0
53896.0,STARLINK-5037,PAYLOAD,2022-10-07 22:00:00,15.73195602,0.0006797,53.2204,188.9009,268.3178,236.4782,-0.00031202,-0.00044246,0.0,0 STARLINK-5037,1 53896U 22119L   22280.91667824 -.00044246  00000-0 -31202-3 0  9996,2 53896  53.2204 188.9009 0006797 268.3178 236.4782 15.73195602  1303,6727.908,91.533,354.346,345.2,0.0
53896.0,STARLINK-5037,PAYLOAD,2022-10-08 04:00:01,15.73117473,0.000666,53.2199,187.6653,270.5037,211.038,0.0009975,0.00141395,0.0,0 STARLINK-5037,1 53896U 22119L   22281.16668981  .00141395  00000-0  99750-3 0  9992,2 53896  53.2199 187.6653 0006660 270.5037 211.0380 15.73117473  2512,6728.13,91.538,354.476,345.515,0.0
53896.0,STARLINK-5037,PAYLOAD,2022-10-08 12:00:00,15.73232781,0.0006501,53.2193,186.0143,270.1049,300.256,-0.00033688,-0.00047771,0.0,0 STARLINK-5037,1 53896U 22119L   22281.50001157 -.00047771  00000-0 -33688-3 0  9999,2 53896  53.2193 186.0143 0006501 270.1049 300.2560 15.73232781  2562,6727.802,91.531,354.04,345.293,0.0
